#aV2006  7  8  0  0   .00000000      96 DD+AD WGS84 FIT  NGA
## 1382 518400.00000000   900.00000000 53924  .0000000000000
+   29     1  2  3  4  5  6  7  8  9 10 11 13 14 15 16 17 18
+         19 20 21 22 23 24 25 26 27 28 29 30  0  0  0  0  0
+          0  0  0  0  0  0  0  0  0  0  0  0  0  0  0  0  0
+          0  0  0  0  0  0  0  0  0  0  0  0  0  0  0  0  0
+          0  0  0  0  0  0  0  0  0  0  0  0  0  0  0  0  0
++         0  0  0  0  0  0  0  0  0  0  0  0  0  0  0  0  0
++         0  0  0  0  0  0  0  0  0  0  0  0  0  0  0  0  0
++         0  0  0  0  0  0  0  0  0  0  0  0  0  0  0  0  0
++         0  0  0  0  0  0  0  0  0  0  0  0  0  0  0  0  0
++         0  0  0  0  0  0  0  0  0  0  0  0  0  0  0  0  0
%c cc cc ccc ccc cccc cccc cccc cccc ccccc ccccc ccccc ccccc
%c cc cc ccc ccc cccc cccc cccc cccc ccccc ccccc ccccc ccccc
%f  0.0000000  0.000000000  0.00000000000  0.000000000000000
%f  0.0000000  0.000000000  0.00000000000  0.000000000000000
%i    0    0    0    0      0      0      0      0         0
%i    0    0    0    0      0      0      0      0         0
/*      NGA, ST. LOUIS,MO.                                  
/*   EPHEMERIS COMPUTED FROM  3 DAYS OF DATA                
/* CCCCCCCCCCCCCCCCCCCCCCCCCCCCCCCCCCCCCCCCCCCCCCCCCCCCCCCCC
/* CCCCCCCCCCCCCCCCCCCCCCCCCCCCCCCCCCCCCCCCCCCCCCCCCCCCCCCCC
*  2006  7  8  8 30   .00000000                                                 
P  1 -10024.882117  18358.420338  16529.222594     64.278841                    
V  1 -18477.760032   9169.700994 -21695.471890       .020774                    
P  2  -2048.430893 -17174.617189  19963.444167     11.770459                    
V  2  23455.768001  10998.827840  11507.011995       .035332                    
P  3  -3286.941334  19444.273896 -17818.185933    144.265553                    
V  3 -19249.097980  11931.251522  17041.618612       .904280                    
P  4  11310.800070 -11172.292799  21278.199261    270.194546                    
V  4  23590.650301  13348.621218  -5176.113671       .077585                    
P  5 -13002.474222 -17894.011865  14617.675035    203.745100                    
V  5    192.217096 -19077.480409 -22696.035074       .351313                    
P  6 -22722.926332   3236.096324  13623.506223    584.130910                    
V  6  12535.572647 -11832.440521  23997.558107       .072932                    
P  7 -18705.238975  18127.178558  -5164.312792    541.287130                    
V  7  -7707.600634   1246.184090  30166.588675      -.006436                    
P  8  18444.810356  -4188.819411 -18954.619651    -71.723317                    
V  8  19916.896687  12680.420682  16303.606180      -.013199                    
P  9 -19804.064752 -16044.267885  -8513.217753     27.207412                    
V  9   9964.606910   2267.981142 -29128.300947       .013792                    
P 10  -1004.534112 -26363.153370   -773.360800     86.251710                    
V 10   2660.752573   -920.486000  32219.230729       .005679                    
P 11  22229.944851  13271.852334  -6555.827361    338.041781                    
V 11  -9238.735438   1375.319322 -28586.634377       .022500                    
P 13  22703.630063  -3485.623491  13197.745422     75.511935                    
V 13 -13723.384914   9948.912172  26098.239971       .030260                    
P 14 -21171.791696  15633.484480   3395.443808    -10.328878                    
V 14  -4664.324939    482.017945 -31964.808186       .008073                    
P 15 -18269.281799   4439.402210 -19067.719070    641.372544                    
V 15 -19537.383106 -13597.771646  15262.765932       .063361                    
P 16  -2353.536887  26020.461415   4515.156653     55.096209                    
V 16  -2968.142155  -5556.373481  31172.865496       .027945                    
P 17  21468.844102 -15382.654996   2244.415638    100.150981                    
V 17   3984.877440    952.957421 -31623.620567       .003205                    
P 18 -15212.860840   1368.308999 -21611.057970   -242.276773                    
V 18   -222.466720 -27720.145823  -1900.290055      -.015356                    
P 19   6785.783596  13646.790511 -21640.307545      -.735939                    
V 19 -24367.084521  13289.947034    791.464335       .023900                    
P 20  13219.097070  14639.734089  17706.712586    -24.456851                    
V 20   -570.749034  22727.316260 -18241.485909       .004190                    
P 21 -23281.654977  -2514.172115 -12960.655790     40.359352                    
V 21 -13068.235728 -10187.840403  24773.877416       .022991                    
P 22 -12115.702321  16388.404340 -16869.364741    114.178631                    
V 22  -1690.612682 -21758.019755 -19760.720398       .034954                    
P 23  16265.452904   6026.934219  20065.967797    138.609483                    
V 23 -21131.558677  14520.829001  12538.568569      -.004215                    
P 24  18885.854376  -3954.661111  18604.676625     19.054792                    
V 24  19166.226849  12865.483652 -16667.730239       .028798                    
P 25  -4440.027413  14936.231470  21902.410011    100.843773                    
V 25 -24954.157408 -10036.328628   1957.641631       .745472                    
P 26  -4788.140484 -14171.162296 -22297.396821   -172.527977                    
V 26  23718.036955 -13578.361901   4166.719786      -.129469                    
P 27  24049.679603   2580.461020 -10724.226214     56.981435                    
V 27  12161.963942   8116.286748  27358.836172       .017481                    
P 28  13075.978471 -12456.295631 -19063.832688     23.598664                    
V 28   2097.293683  24909.617846 -14953.158914      -.008794                    
P 29  -1016.294933 -15846.673277 -21003.794307    627.255429                    
V 29  23290.195874 -14067.851303   9659.854169       .031223                    
P 30 -15444.613661  -4856.989597  20789.769727      3.000028                    
V 30  -1316.226494 -27070.649493  -7086.873317       .011107                    
EOF
